{
"type": "FeatureCollection",
"name": "max_population_h3",
"crs": { "type": "name", "properties": { "name": "urn:ogc:def:crs:OGC:1.3:CRS84" } },
"features": [
{ "type": "Feature", "properties": { "h3": "886032996dfffff", "population": 25601.0 }, "geometry": { "type": "Polygon", "coordinates": [ [ [ 78.379816618607762, 11.573163328001348 ], [ 78.379913575954404, 11.578179814067086 ], [ 78.375732281135996, 11.580746947182597 ], [ 78.371454290452633, 11.578297653164118 ], [ 78.371357478192991, 11.573281393498952 ], [ 78.375538511535055, 11.570714201448832 ], [ 78.379816618607762, 11.573163328001348 ] ] ] } }
]
}
