<?xml version="1.0" encoding="UTF-8"?>
<kml xmlns="http://www.opengis.net/kml/2.2" xmlns:gx="http://www.google.com/kml/ext/2.2" xmlns:kml="http://www.opengis.net/kml/2.2" xmlns:atom="http://www.w3.org/2005/Atom">
<Document>
	<name>Untitled project</name>
	<gx:CascadingStyle kml:id="__managed_style_1F69B1D043397A094D13">
		<Style>
			<IconStyle>
				<scale>1.2</scale>
				<Icon>
					<href>https://earth.google.com/earth/document/icon?color=1976d2&amp;id=2000&amp;scale=4</href>
				</Icon>
				<hotSpot x="64" y="128" xunits="pixels" yunits="insetPixels"/>
			</IconStyle>
			<LabelStyle>
			</LabelStyle>
			<LineStyle>
				<color>ff2dc0fb</color>
				<width>6</width>
			</LineStyle>
			<PolyStyle>
				<color>40ffffff</color>
			</PolyStyle>
			<BalloonStyle>
				<displayMode>hide</displayMode>
			</BalloonStyle>
		</Style>
	</gx:CascadingStyle>
	<gx:CascadingStyle kml:id="__managed_style_0BCD808AF5397A094D13">
		<Style>
			<IconStyle>
				<Icon>
					<href>https://earth.google.com/earth/document/icon?color=1976d2&amp;id=2000&amp;scale=4</href>
				</Icon>
				<hotSpot x="64" y="128" xunits="pixels" yunits="insetPixels"/>
			</IconStyle>
			<LabelStyle>
			</LabelStyle>
			<LineStyle>
				<color>ff2dc0fb</color>
				<width>4</width>
			</LineStyle>
			<PolyStyle>
				<color>40ffffff</color>
			</PolyStyle>
			<BalloonStyle>
				<displayMode>hide</displayMode>
			</BalloonStyle>
		</Style>
	</gx:CascadingStyle>
	<StyleMap id="__managed_style_08EDAEEBC7397A094D11">
		<Pair>
			<key>normal</key>
			<styleUrl>#__managed_style_0BCD808AF5397A094D13</styleUrl>
		</Pair>
		<Pair>
			<key>highlight</key>
			<styleUrl>#__managed_style_1F69B1D043397A094D13</styleUrl>
		</Pair>
	</StyleMap>
	<Placemark id="03D207E6CC397A094D0B">
		<name>Untitled polygon</name>
		<LookAt>
			<longitude>78.50228893524908</longitude>
			<latitude>11.90980972769499</latitude>
			<altitude>913.9380605517306</altitude>
			<heading>2.55020236984844</heading>
			<tilt>0</tilt>
			<gx:fovy>35</gx:fovy>
			<range>302750.2796369791</range>
			<altitudeMode>absolute</altitudeMode>
		</LookAt>
		<styleUrl>#__managed_style_08EDAEEBC7397A094D11</styleUrl>
		<Polygon>
			<outerBoundaryIs>
				<LinearRing>
					<coordinates>
						78.3148987689912,11.18349944492748,0 78.33723912461103,11.18041466277948,0 78.37333595079615,11.18176512210862,0 78.40366908145091,11.19265419028145,0 78.41814353972255,11.21044039509682,0 78.43503053046284,11.25623391170367,0 78.45022906628671,11.278554700361,0 78.45293204426937,11.30145605178879,0 78.46721569132802,11.31564030047824,0 78.50127885265908,11.31761373856868,0 78.52300688853032,11.31349161972297,0 78.53934355687399,11.2952940928937,0 78.55046724288307,11.28860337608967,0 78.54691241377934,11.25855904275323,0 78.53860018490347,11.23950442511023,0 78.54327759498764,11.22748266900569,0 78.56690949124345,11.23965941485326,0 78.59351686638279,11.25068329632896,0 78.60612717912602,11.23628176713252,0 78.63214896857947,11.22676915441863,0 78.65536925308812,11.23076983912161,0 78.67563206469691,11.23236956609085,0 78.66703495553594,11.20924751034628,0 78.6683244244377,11.18920818305944,0 78.65679315799386,11.17366916866369,0 78.64180975923803,11.16250879684052,0 78.6484439126781,11.15179840271234,0 78.74143331056781,11.17224774194732,0 78.76376849498678,11.18101107817976,0 78.78687845559612,11.17231278108711,0 78.80011568445811,11.15450281840417,0 78.81617276076447,11.13873003298912,0 78.84445340454137,11.15129219378045,0 78.84087599379538,11.17660551229046,0 78.82865163775392,11.19393674392822,0 78.8130870241767,11.22036567060024,0 78.82513203687101,11.28047813449052,0 78.80786316885958,11.30066462417002,0 78.75248152363991,11.32799007221898,0 78.7059463181326,11.33438544559293,0 78.68818605933433,11.38470137910674,0 78.70723578141732,11.44540822667132,0 78.69908210877705,11.46644731867008,0 78.70517010265483,11.63887026280442,0 78.84893819440374,11.70357501801939,0 78.91076388728372,12.02943038466701,0 78.93266459268222,12.19797504795531,0 79.04219728079724,12.29870769823644,0 79.1485406386755,12.64370423935489,0 79.09482290037214,12.8371666343736,0 78.81105247157693,12.85779268528626,0 78.59714872304804,12.58366545007111,0 78.41504920590269,12.11932453586284,0 78.26566761851338,12.15573326875575,0 78.01022034095061,11.95100452810987,0 77.98751041776103,11.87765090705935,0 78.12966395639195,11.87367314700635,0 78.09645706646619,11.80282388624155,0 78.12064028428384,11.7462743813638,0 78.15563458921017,11.76263349388446,0 78.19505100838091,11.71268448723375,0 78.24933555178274,11.67509080589357,0 78.18074967880571,11.62123062268119,0 78.15958020412751,11.58667612759816,0 78.18657285729402,11.50832202061894,0 78.22903612894608,11.50013780066345,0 78.27371792712262,11.51989947224953,0 78.31796727769546,11.48854215081818,0 78.31346201777302,11.44687131118773,0 78.28650786357879,11.40966119890934,0 78.27225206219966,11.35417978273763,0 78.30277129137738,11.33111938899069,0 78.27548336345929,11.23419008406708,0 78.28032204755209,11.18581680694984,0 78.3148987689912,11.18349944492748,0 
					</coordinates>
				</LinearRing>
			</outerBoundaryIs>
		</Polygon>
	</Placemark>
</Document>
</kml>
